KNACKSAT-2              
1 67683U 98067XZ  26168.60673955  .00040994  00000+0  49993-3 0  9996
2 67683  51.6314 292.3670 0009088 217.1010 142.9356 15.60014370 20344
INNOSAT 3 (RS92S0)      
1 64894U 25155U   26169.86816610  .00030253  00000+0  66518-3 0  9990
2 64894  97.4490 141.4044 0006795 147.0591 213.1082 15.43925236 81228
